[{"OBJECT_NAME":"STARLINK-32396","OBJECT_ID":"2024-191N","EPOCH":"2026-03-09T22:39:02.158272","MEAN_MOTION":15.27574185,"ECCENTRICITY":2.828e-5,"INCLINATION":42.9978,"RA_OF_ASC_NODE":156.6776,"ARG_OF_PERICENTER":241.7519,"MEAN_ANOMALY":118.3304,"EPHEMERIS_TYPE":0,"CLASSIFICATION_TYPE":"U","NORAD_CAT_ID":61633,"ELEMENT_SET_NO":999,"REV_AT_EPOCH":7753,"BSTAR":2.5555441e-5,"MEAN_MOTION_DOT":4.42e-6,"MEAN_MOTION_DDOT":0},{"OBJECT_NAME":"COSMOS 1758","OBJECT_ID":"1986-046A","EPOCH":"2026-03-09T22:23:33.220896","MEAN_MOTION":15.25706639,"ECCENTRICITY":0.00131526,"INCLINATION":82.4607,"RA_OF_ASC_NODE":143.3203,"ARG_OF_PERICENTER":337.3781,"MEAN_ANOMALY":22.6875,"EPHEMERIS_TYPE":0,"CLASSIFICATION_TYPE":"U","NORAD_CAT_ID":16791,"ELEMENT_SET_NO":999,"REV_AT_EPOCH":16610,"BSTAR":0.00027304427,"MEAN_MOTION_DOT":7.006e-5,"MEAN_MOTION_DDOT":0}]
